{
    "links": {
        "self": "http://www.neowsapp.com/rest/v1/neo/3831845?api_key=iIulBulltgU6a56xZRHN4H3l9WmuAYTsLGpBGhQ2"
    },
    "id": "3831845",
    "neo_reference_id": "3831845",
    "name": "(2018 TT5)",
    "designation": "2018 TT5",
    "nasa_jpl_url": "http://ssd.jpl.nasa.gov/sbdb.cgi?sstr=3831845",
    "absolute_magnitude_h": 25.4,
    "estimated_diameter": {
        "kilometers": {
            "estimated_diameter_min": 0.022108281,
            "estimated_diameter_max": 0.0494356193
        },
        "meters": {
            "estimated_diameter_min": 22.1082810359,
            "estimated_diameter_max": 49.435619262
        },
        "miles": {
            "estimated_diameter_min": 0.0137374447,
            "estimated_diameter_max": 0.0307178602
        },
        "feet": {
            "estimated_diameter_min": 72.5337327539,
            "estimated_diameter_max": 162.1903570994
        }
    },
    "is_potentially_hazardous_asteroid": false,
    "close_approach_data": [
        {
            "close_approach_date": "1937-09-24",
            "close_approach_date_full": "1937-Sep-24 08:30",
            "epoch_date_close_approach": -1018366200000,
            "relative_velocity": {
                "kilometers_per_second": "23.093807834",
                "kilometers_per_hour": "83137.7082025516",
                "miles_per_hour": "51658.5387439688"
            },
            "miss_distance": {
                "astronomical": "0.4146445345",
                "lunar": "161.2967239205",
                "kilometers": "62029939.168341515",
                "miles": "38543616.907942307"
            },
            "orbiting_body": "Earth"
        },
        {
            "close_approach_date": "2016-09-22",
            "close_approach_date_full": "2016-Sep-22 00:07",
            "epoch_date_close_approach": 1474502820000,
            "relative_velocity": {
                "kilometers_per_second": "24.7550524228",
                "kilometers_per_hour": "89118.1887221635",
                "miles_per_hour": "55374.5767646132"
            },
            "miss_distance": {
                "astronomical": "0.4717590439",
                "lunar": "183.5142680771",
                "kilometers": "70574148.120676493",
                "miles": "43852742.1635138834"
            },
            "orbiting_body": "Earth"
        },
        {
            "close_approach_date": "2018-10-24",
            "close_approach_date_full": "2018-Oct-24 20:30",
            "epoch_date_close_approach": 1540413000000,
            "relative_velocity": {
                "kilometers_per_second": "10.2357890891",
                "kilometers_per_hour": "36848.8407209144",
                "miles_per_hour": "22896.4366135038"
            },
            "miss_distance": {
                "astronomical": "0.0407092654",
                "lunar": "15.8359042406",
                "kilometers": "6090019.393104698",
                "miles": "3784162.5769249124"
            },
            "orbiting_body": "Earth"
        }
    ],
    "orbital_data": {
        "orbit_id": "2",
        "orbit_determination_date": "2018-10-16 07:15:43",
        "first_observation_date": "2018-10-02",
        "last_observation_date": "2018-10-15",
        "data_arc_in_days": 13,
        "observations_used": 16,
        "orbit_uncertainty": "8",
        "minimum_orbit_intersection": ".0323613",
        "jupiter_tisserand_invariant": "4.175",
        "epoch_osculation": "2458399.5",
        "eccentricity": ".4735024759058847",
        "semi_major_axis": "1.629169177662276",
        "inclination": "5.303036537334274",
        "ascending_node_longitude": "188.4573609018435",
        "orbital_period": "759.5348480889695",
        "perihelion_distance": ".8577535383696344",
        "perihelion_argument": "256.620626954883",
        "aphelion_distance": "2.400584816954919",
        "perihelion_time": "2458456.992947517226",
        "mean_anomaly": "332.7498202903036",
        "mean_motion": ".4739743027008956",
        "equinox": "J2000",
        "orbit_class": {
            "orbit_class_type": "APO",
            "orbit_class_description": "Near-Earth asteroid orbits which cross the Earth’s orbit similar to that of 1862 Apollo",
            "orbit_class_range": "a (semi-major axis) > 1.0 AU; q (perihelion) < 1.017 AU"
        }
    },
    "is_sentry_object": false
}